{
  "norad_id": 63490,
  "name": "HYDRA-W",
  "history": [
    {
      "epoch": "2026-03-28T05:15:16.325280Z",
      "apogee_km": 356.8690506285511,
      "perigee_km": 347.15609876234976,
      "latitude_deg": -2.314532349105125e-05,
      "longitude_deg": 84.88334924740603,
      "height_km": 354.92879435552584,
      "semi_major_axis_km": 6730.14957469545,
      "eccentricity": 0.0007216,
      "inclination_deg": 97.3884,
      "raan_deg": 349.3439,
      "arg_perigee_deg": 87.2724,
      "mean_anomaly_deg": 272.9365,
      "mean_motion_rev_day": 15.72409603
    }
  ]
}